GSAT-18                 
1 41793U 16060A   26154.72418664 -.00000065  00000+0  00000+0 0  9993
2 41793   0.0206  77.3291 0005959 351.3836 158.1731  1.00271758 35397
SKY MUSTER 2 (NBN1B)    
1 41794U 16060B   26154.88084256 -.00000232  00000+0  00000+0 0  9993
2 41794   0.0141 308.3939 0001811 125.3909 280.4598  1.00270473 35387
HIMAWARI-9              
1 41836U 16064A   26154.87997589 -.00000263  00000+0  00000+0 0  9999
2 41836   0.0411 169.8886 0001563 311.0224 228.9789  1.00270670 35077
SHIJIAN-17 (SJ-17)      
1 41838U 16065A   26154.62032484 -.00000028  00000+0  00000+0 0  9998
2 41838   5.7184  72.7668 0002128  18.1736 280.6500  0.99854083 35067
GOES 16                 
1 41866U 16071A   26154.90268266 -.00000079  00000+0  00000+0 0  9992
2 41866   0.3065  85.6559 0000692 317.4563  69.5561  1.00271246 34973
TIANLIAN 1-04           
1 41869U 16072A   26155.10091676  .00000044  00000+0  00000+0 0  9999
2 41869   0.8355  83.0574 0042090  90.3135 292.3706  1.00275065 35175
WGS F8 (USA 272)        
1 41879U 16075A   26154.83655767 -.00000190  00000+0  00000+0 0  9992
2 41879   0.0051 353.3302 0000274 340.8218   9.1252  1.00270893 34685
FENGYUN 4A              
1 41882U 16077A   26154.94793336 -.00000345  00000+0  00000+0 0  9997
2 41882   2.2896  80.4279 0008164 151.6857 125.2600  1.00276726 34794
ECHOSTAR 19             
1 41893U 16079A   26154.61732213 -.00000127  00000+0  00000+0 0  9990
2 41893   0.0181   5.9891 0001602  73.9814 297.2509  1.00272599 34567
JCSAT-110A (JCSAT-15)   
1 41903U 16082A   26154.87390919 -.00000339  00000+0  00000+0 0  9992
2 41903   0.0156 338.2707 0000852 112.5541 226.1805  1.00271608 34629
STAR ONE D1             
1 41904U 16082B   26154.90675601 -.00000199  00000+0  00000+0 0  9995
2 41904   0.0092  36.4425 0002112  51.6117  46.7396  1.00270354 34646
TJS-2                   
1 41911U 17001A   26154.86530580  .00000005  00000+0  00000+0 0  9991
2 41911   0.7988  85.5088 0000809   7.9978 176.8554  1.00272383 34583
SBIRS GEO-4 (USA 273)   
1 41937U 17004A   26154.92756537  .00000135  00000+0  00000+0 0  9995
2 41937   2.2178  42.9166 0002409  25.9707 178.3225  1.00272746 34463
HISPASAT 36W-1          
1 41942U 17006A   26154.91628937 -.00000232  00000+0  00000+0 0  9993
2 41942   0.0043 298.8239 0000965 138.2349 109.1840  1.00271080 34111
TELKOM 3S               
1 41944U 17007A   26154.87546920 -.00000351  00000+0  00000+0 0  9994
2 41944   0.0165 277.6066 0002544 157.2428 250.6654  1.00271840 34002
INTELSAT 32E (IS-32E)   
1 41945U 17007B   26154.91490271 -.00000257  00000+0  00000+0 0  9992
2 41945   0.0177 349.6739 0000285 352.6574 196.2179  1.00272551 34092
ECHOSTAR 23             
1 42070U 17014A   26154.62728502 -.00000045  00000+0  00000+0 0  9994
2 42070   0.0184  11.3625 0001948  59.7019 296.9459  1.00270964 33783
WGS F9 (USA 275)        
1 42075U 17016A   26154.92106534 -.00000085  00000+0  00000+0 0  9993
2 42075   0.0104 296.4273 0000530 171.0707 104.4665  1.00267735 33765
SES-10                  
1 42432U 17017A   26154.83887436 -.00000261  00000+0  00000+0 0  9994
2 42432   0.0238  36.0364 0003006  42.1098  49.2423  1.00271234 33623
CHINASAT 16 (SJ-13)     
1 42662U 17018A   26155.01658103 -.00000340  00000+0  00000+0 0  9996
2 42662   0.0989  92.1250 0003285 136.5212 140.3017  1.00268493 33617
KOREASAT 7              
1 42691U 17023A   26154.87512252 -.00000350  00000+0  00000+0 0  9992
2 42691   0.0256 326.8500 0000780  93.6710 262.7279  1.00268697 33237
SGDC                    
1 42692U 17023B   26154.50809222 -.00000238  00000+0  00000+0 0  9994
2 42692   0.0116  25.1386 0003132  58.2990 276.6030  1.00271018 33279
GSAT-9                  
1 42695U 17024A   26154.87139584 -.00000275  00000+0  00000+0 0  9996
2 42695   0.0213 280.0646 0002495 147.7695 235.5070  1.00274636 33163
INMARSAT 5-F4           
1 42698U 17025A   26154.93458662  .00000087  00000+0  00000+0 0  9998
2 42698   0.0174 336.3217 0000276 107.0594 201.9578  1.00269970 33146
SES-15                  
1 42709U 17026A   26154.89774264  .00000072  00000+0  00000+0 0  9990
2 42709   0.0199 330.9085 0000729  96.6962  18.7790  1.00270031  7303
QZS-2 (MICHIBIKI-2)     
1 42738U 17028A   26154.60922439 -.00000158  00000+0  00000+0 0  9998
2 42738  39.4485 243.3546 0759590 269.1264 100.0088  1.00287507  7498
VIASAT-2                
1 42740U 17029A   26154.90961602 -.00000253  00000+0  00000+0 0  9996
2 42740   0.0171 293.1097 0000427 145.4282  71.4049  1.00271675 33075
EUTELSAT 172B           
1 42741U 17029B   26154.88621591  .00000006  00000+0  00000+0 0  9999
2 42741   0.0179 150.1457 0000146 278.8581 314.3896  1.00270156 33608
GSAT-19                 
1 42747U 17031A   26154.93293995  .00000137  00000+0  00000+0 0  9992
2 42747   0.0997  91.7443 0007125 346.8189 197.5594  1.00270001 33011
ECHOSTAR 21             
1 42749U 17032A   26154.92539869  .00000077  00000+0  00000+0 0  9990
2 42749   1.7722 354.8334 0002505  81.0291 159.9469  1.00269127 32961
BULGARIASAT-1           
1 42801U 17038A   26154.92383868  .00000023  00000+0  00000+0 0  9992
2 42801   0.0619  89.8548 0003660 355.1404 141.8623  1.00268931 32710
