OBJECT_NAME,OBJECT_ID,EPOCH,MEAN_MOTION,ECCENTRICITY,INCLINATION,RA_OF_ASC_NODE,ARG_OF_PERICENTER,MEAN_ANOMALY,EPHEMERIS_TYPE,CLASSIFICATION_TYPE,NORAD_CAT_ID,ELEMENT_SET_NO,REV_AT_EPOCH,BSTAR,MEAN_MOTION_DOT,MEAN_MOTION_DDOT
GSAT-18,2016-060A,2026-06-03T17:22:49.725696,1.00271758,.00059597,0.0206,77.3291,351.3836,158.1731,0,U,41793,999,3539,0,-.65E-6,0
SKY MUSTER 2 (NBN1B),2016-060B,2026-06-03T21:08:24.797184,1.00270473,.00018117,0.0141,308.3939,125.3909,280.4598,0,U,41794,999,3538,0,-.232E-5,0
HIMAWARI-9,2016-064A,2026-06-03T21:07:09.916896,1.00270670,.00015639,0.0411,169.8886,311.0224,228.9789,0,U,41836,999,3507,0,-.263E-5,0
SHIJIAN-17 (SJ-17),2016-065A,2026-06-03T14:53:16.066176,0.99854083,.0002128,5.7184,72.7668,18.1736,280.6500,0,U,41838,999,3506,0,-.28E-6,0
GOES 16,2016-071A,2026-06-03T21:39:51.781824,1.00271246,.00006928,0.3065,85.6559,317.4563,69.5561,0,U,41866,999,3497,0,-.79E-6,0
TIANLIAN 1-04,2016-072A,2026-06-04T02:25:19.208064,1.00275065,.004209,0.8355,83.0574,90.3135,292.3706,0,U,41869,999,3517,0,.44E-6,0
WGS F8 (USA 272),2016-075A,2026-06-03T20:04:38.582688,1.00270893,.00002744,0.0051,353.3302,340.8218,9.1252,0,U,41879,999,3468,0,-.19E-5,0
FENGYUN 4A,2016-077A,2026-06-03T22:45:01.442304,1.00276726,.00081649,2.2896,80.4279,151.6857,125.2600,0,U,41882,999,3479,0,-.345E-5,0
ECHOSTAR 19,2016-079A,2026-06-03T14:48:56.632032,1.00272599,.00016028,0.0181,5.9891,73.9814,297.2509,0,U,41893,999,3456,0,-.127E-5,0
JCSAT-110A (JCSAT-15),2016-082A,2026-06-03T20:58:25.754016,1.00271608,.00008523,0.0156,338.2707,112.5541,226.1805,0,U,41903,999,3462,0,-.339E-5,0
STAR ONE D1,2016-082B,2026-06-03T21:45:43.719264,1.00270354,.00021124,0.0092,36.4425,51.6117,46.7396,0,U,41904,999,3464,0,-.199E-5,0
TJS-2,2017-001A,2026-06-03T20:46:02.421120,1.00272383,.00008099,0.7988,85.5088,7.9978,176.8554,0,U,41911,999,3458,0,.5E-7,0
SBIRS GEO-4 (USA 273),2017-004A,2026-06-03T22:15:41.647968,1.00272746,.00024093,2.2178,42.9166,25.9707,178.3225,0,U,41937,999,3446,0,.135E-5,0
HISPASAT 36W-1,2017-006A,2026-06-03T21:59:27.401568,1.00271080,.00009652,0.0043,298.8239,138.2349,109.1840,0,U,41942,999,3411,0,-.232E-5,0
TELKOM 3S,2017-007A,2026-06-03T21:00:40.538880,1.00271840,.00025446,0.0165,277.6066,157.2428,250.6654,0,U,41944,999,3400,0,-.351E-5,0
INTELSAT 32E (IS-32E),2017-007B,2026-06-03T21:57:27.594144,1.00272551,.00002853,0.0177,349.6739,352.6574,196.2179,0,U,41945,999,3409,0,-.257E-5,0
ECHOSTAR 23,2017-014A,2026-06-03T15:03:17.425728,1.00270964,.0001948,0.0184,11.3625,59.7019,296.9459,0,U,42070,999,3378,0,-.45E-6,0
WGS F9 (USA 275),2017-016A,2026-06-03T22:06:20.045376,1.00267735,.00005302,0.0104,296.4273,171.0707,104.4665,0,U,42075,999,3376,0,-.85E-6,0
SES-10,2017-017A,2026-06-03T20:07:58.744704,1.00271234,.00030062,0.0238,36.0364,42.1098,49.2423,0,U,42432,999,3362,0,-.261E-5,0
CHINASAT 16 (SJ-13),2017-018A,2026-06-04T00:23:52.600992,1.00268493,.0003285,0.0989,92.1250,136.5212,140.3017,0,U,42662,999,3361,0,-.34E-5,0
KOREASAT 7,2017-023A,2026-06-03T21:00:10.585728,1.00268697,.000078,0.0256,326.8500,93.6710,262.7279,0,U,42691,999,3323,0,-.35E-5,0
SGDC,2017-023B,2026-06-03T12:11:39.167808,1.00271018,.00031323,0.0116,25.1386,58.2990,276.6030,0,U,42692,999,3327,0,-.238E-5,0
GSAT-9,2017-024A,2026-06-03T20:54:48.600576,1.00274636,.00024955,0.0213,280.0646,147.7695,235.5070,0,U,42695,999,3316,0,-.275E-5,0
INMARSAT 5-F4,2017-025A,2026-06-03T22:25:48.283968,1.00269970,.00002765,0.0174,336.3217,107.0594,201.9578,0,U,42698,999,3314,0,.87E-6,0
SES-15,2017-026A,2026-06-03T21:32:44.964096,1.00270031,.00007293,0.0199,330.9085,96.6962,18.7790,0,U,42709,999,730,0,.72E-6,0
QZS-2 (MICHIBIKI-2),2017-028A,2026-06-03T14:37:16.987296,1.00287507,.075959,39.4485,243.3546,269.1264,100.0088,0,U,42738,999,749,0,-.158E-5,0
VIASAT-2,2017-029A,2026-06-03T21:49:50.824128,1.00271675,.00004275,0.0171,293.1097,145.4282,71.4049,0,U,42740,999,3307,0,-.253E-5,0
EUTELSAT 172B,2017-029B,2026-06-03T21:16:09.054624,1.00270156,.00001465,0.0179,150.1457,278.8581,314.3896,0,U,42741,999,3360,0,.6E-7,0
GSAT-19,2017-031A,2026-06-03T22:23:26.011680,1.00270001,.00071255,0.0997,91.7443,346.8189,197.5594,0,U,42747,999,3301,0,.137E-5,0
ECHOSTAR 21,2017-032A,2026-06-03T22:12:34.446816,1.00269127,.00025054,1.7722,354.8334,81.0291,159.9469,0,U,42749,999,3296,0,.77E-6,0
BULGARIASAT-1,2017-038A,2026-06-03T22:10:19.661952,1.00268931,.00036605,0.0619,89.8548,355.1404,141.8623,0,U,42801,999,3271,0,.23E-6,0
